[{"OBJECT_NAME":"SHIJIAN-6 02B (SJ-6 02B)","OBJECT_ID":"2006-046B","EPOCH":"2026-03-09T23:09:06.940224","MEAN_MOTION":15.01001333,"ECCENTRICITY":0.00140021,"INCLINATION":97.7065,"RA_OF_ASC_NODE":98.697,"ARG_OF_PERICENTER":42.7506,"MEAN_ANOMALY":317.4805,"EPHEMERIS_TYPE":0,"CLASSIFICATION_TYPE":"U","NORAD_CAT_ID":29506,"ELEMENT_SET_NO":999,"REV_AT_EPOCH":5585,"BSTAR":0.00024683398,"MEAN_MOTION_DOT":3.096e-5,"MEAN_MOTION_DDOT":0},{"OBJECT_NAME":"STARLINK-6069","OBJECT_ID":"2023-078AP","EPOCH":"2026-03-09T22:42:04.054464","MEAN_MOTION":14.98327874,"ECCENTRICITY":0.00026032,"INCLINATION":70.0001,"RA_OF_ASC_NODE":323.7401,"ARG_OF_PERICENTER":261.2773,"MEAN_ANOMALY":98.8092,"EPHEMERIS_TYPE":0,"CLASSIFICATION_TYPE":"U","NORAD_CAT_ID":56804,"ELEMENT_SET_NO":999,"REV_AT_EPOCH":15388,"BSTAR":-0.00010825386,"MEAN_MOTION_DOT":-1.384e-5,"MEAN_MOTION_DDOT":0}]
